TIANWANG 1C (TW-1C)     
1 40926U 15051B   17243.34625311  .00007799  00000-0  17461-3 0  9999
2 40926  97.2239 282.3467 0009563 253.4551 162.1220 15.43686921108519
TIANWANG 1B (TW-1B)     
1 40927U 15051C   17243.34161057  .00007640  00000-0  17764-3 0  9993
2 40927  97.2332 282.3255 0009279 266.9336 152.3726 15.42562827108455
TIANWANG 1A (TW-1A)     
1 40928U 15051D   17243.31052347  .00002996  00000-0  86008-4 0  9999
2 40928  97.2221 277.7743 0010664 291.8187 128.9655 15.36577293108236
LAPAN-A2 (IO-86)        
1 40931U 15052B   17243.01859865  .00000779  00000-0  19519-4 0  9991
2 40931   5.9994  59.1626 0013295 225.8491 134.0756 14.76539411104041
LQSAT                   
1 40958U 15057A   17243.37955794  .00000035  00000-0  13180-4 0  9995
2 40958  97.9732 317.3683 0017887 180.9113 179.2060 14.72980115102185
CHUBUSAT-2              
1 41338U 16012B   17242.62791162  .00000521  00000-0  34289-4 0  9997
2 41338  31.0044 359.4692 0013835  75.9873 284.2299 14.99782561 84178
CHUBUSAT-3              
1 41339U 16012C   17243.34455501  .00000405  00000-0  25019-4 0  9994
2 41339  31.0121 353.9407 0013599  89.1419 271.0778 14.99984706 84269
OUFTI-1                 
1 41458U 16025C   17242.86110954  .00002637  00000-0  14323-3 0  9990
2 41458  98.1789 284.7044 0174057  40.5173 320.8860 15.03447136 73808
E-ST@R-II               
1 41459U 16025D   17243.15647738  .00001527  00000-0  84942-4 0  9991
2 41459  98.1814 284.9568 0175451  39.9262 321.4719 15.03268876 73836
AAUSAT 4                
1 41460U 16025E   17243.37384444  .00003164  00000-0  17075-3 0  9990
2 41460  98.1737 285.3329 0167750  37.2073 324.0651 15.04260471 73890
NUSAT 1 (LO-87)         
1 41557U 16033B   17243.30057132  .00002212  00000-0  85338-4 0  9991
2 41557  97.4597 322.8130 0015858 101.5773 258.7248 15.27266164 69893
BEESAT-4                
1 41619U 16040W   17243.13117430  .00002200  00000-0  10226-3 0  9997
2 41619  97.4561 304.7786 0012645 159.2538 200.9213 15.20982484 53986
PRATHAM                 
1 41783U 16059A   17242.17030341  .00000051  00000-0  19488-4 0  9999
2 41783  98.1605 302.7532 0032338 289.5764  70.1947 14.62852928 49419
ALSAT 1N                
1 41789U 16059G   17243.39612336  .00000080  00000-0  24512-4 0  9996
2 41789  98.1602 304.6115 0027147 279.9034  79.9103 14.64068269 49617
NAYIF-1 (EO-88)         
1 42017U 17008BX  17242.80463360  .00002625  00000-0  11391-3 0  9999
2 42017  97.4888 304.1007 0005521 333.0012  27.0936 15.23224305 29847
LILACSAT-1              
1 42725U 98067ME  17243.43280077  .00014401  00000-0  20400-3 0  9997
2 42725  51.6404  22.1472 0006430 230.9673 129.0747 15.56726024 15197
MAX VALIER SAT          
1 42778U 17036P   17243.17869779  .00001576  00000-0  75208-4 0  9991
2 42778  97.4453 302.1154 0013048  12.8178 347.3387 15.20484399 10428
